GLOBALSTAR M075         
1 37192U 10054E   24122.95059115 -.00000075  00000+0  15961-3 0  9995
2 37192  51.9966 353.6625 0000913  86.5840 286.2535 12.62273397624076
GLOBALSTAR M073         
1 37193U 10054F   24122.71314309 -.00000081  00000+0  12843-3 0  9992
2 37193  52.0057 267.8900 0000792 122.1912 250.7498 12.62264559625877
GLOBALSTAR M083         
1 37739U 11033A   24122.56781355 -.00000087  00000+0  93888-4 0  9993
2 37739  51.9850 217.6257 0000542 100.6460 272.4734 12.62269626594871
GLOBALSTAR M088         
1 37740U 11033B   24122.73413113 -.00000092  00000+0  63858-4 0  9998
2 37740  51.9708 122.9547 0000440  63.4145 106.3545 12.62267772590431
GLOBALSTAR M091         
1 37741U 11033C   24122.66853458 -.00000092  00000+0  66667-4 0  9992
2 37741  51.9992  85.9726 0000744  54.6367 116.4339 12.62262059591212
GLOBALSTAR M085         
1 37742U 11033D   24122.49685508 -.00000087  00000+0  93101-4 0  9990
2 37742  51.9890  37.8989 0000925  66.6879 104.0305 12.62270190591704
GLOBALSTAR M081         
1 37743U 11033E   24122.81010153 -.00000088  00000+0  88613-4 0  9998
2 37743  51.9979  39.4781 0000958  78.5620 316.1741 12.62271293591898
GLOBALSTAR M089         
1 37744U 11033F   24122.92697330 -.00000071  00000+0  18424-3 0  9993
2 37744  51.9949 353.4318 0000748 112.2171 272.6523 12.62262961592757
